{"type": "FeatureCollection", "features": [{"type": "Feature", "properties": {"norad_id": 22490, "name": "SCD 1", "group": "resource", "lat": -14.299836092087775, "lon": 143.9381503302053, "alt_km": 737.5163056188758, "timestamp": "2025-12-10T18:56:59.718245+00:00", "meta": {"OBJECT_NAME": "SCD 1", "OBJECT_ID": "1993-009B", "EPOCH": "2025-12-10T04:53:32.246016", "MEAN_MOTION": 14.45996078, "ECCENTRICITY": 0.00417365, "INCLINATION": 24.9703, "RA_OF_ASC_NODE": 294.3414, "ARG_OF_PERICENTER": 298.0723, "MEAN_ANOMALY": 102.906, "EPHEMERIS_TYPE": 0, "CLASSIFICATION_TYPE": "U", "NORAD_CAT_ID": 22490, "ELEMENT_SET_NO": 999, "REV_AT_EPOCH": 73373, "BSTAR": 0.00014937956, "MEAN_MOTION_DOT": 7.32e-06, "MEAN_MOTION_DDOT": 0}, "tle": {"line1": "1 22490U 93009B   25344.20384544  .00000732  00000+0  14938-3 0  9995", "line2": "2 22490  24.9703 294.3414 0041736 298.0723 102.9060 14.45996078733737"}}, "geometry": {"type": "Point", "coordinates": [143.9381503302053, -14.299836092087775]}}, {"type": "Feature", "properties": {"norad_id": 25397, "name": "TECHSAT 1B (GO-32)", "group": "resource", "lat": -72.38163685617442, "lon": 118.04965248117183, "alt_km": 819.3386209995979, "timestamp": "2025-12-10T18:56:59.718274+00:00", "meta": {"OBJECT_NAME": "TECHSAT 1B (GO-32)", "OBJECT_ID": "1998-043D", "EPOCH": "2025-12-10T09:19:40.960128", "MEAN_MOTION": 14.24375977, "ECCENTRICITY": 0.000213, "INCLINATION": 98.9918, "RA_OF_ASC_NODE": 327.5465, "ARG_OF_PERICENTER": 61.168, "MEAN_ANOMALY": 298.9711, "EPHEMERIS_TYPE": 0, "CLASSIFICATION_TYPE": "U", "NORAD_CAT_ID": 25397, "ELEMENT_SET_NO": 999, "REV_AT_EPOCH": 42445, "BSTAR": 9.4255e-05, "MEAN_MOTION_DOT": 1.71e-06, "MEAN_MOTION_DDOT": 0}, "tle": {"line1": "1 25397U 98043D   25344.38866852  .00000171  00000+0  94255-4 0  9991", "line2": "2 25397  98.9918 327.5465 0002130  61.1680 298.9711 14.24375977424457"}}, "geometry": {"type": "Point", "coordinates": [118.04965248117183, -72.38163685617442]}}, {"type": "Feature", "properties": {"norad_id": 25504, "name": "SCD 2", "group": "resource", "lat": -23.721533314367598, "lon": 44.52721064645197, "alt_km": 732.1708516538429, "timestamp": "2025-12-10T18:56:59.718290+00:00", "meta": {"OBJECT_NAME": "SCD 2", "OBJECT_ID": "1998-060A", "EPOCH": "2025-12-10T05:20:00.938112", "MEAN_MOTION": 14.45421199, "ECCENTRICITY": 0.0016597, "INCLINATION": 24.9931, "RA_OF_ASC_NODE": 157.4199, "ARG_OF_PERICENTER": 286.7384, "MEAN_ANOMALY": 247.4751, "EPHEMERIS_TYPE": 0, "CLASSIFICATION_TYPE": "U", "NORAD_CAT_ID": 25504, "ELEMENT_SET_NO": 999, "REV_AT_EPOCH": 43295, "BSTAR": 0.00011777, "MEAN_MOTION_DOT": 6.04e-06, "MEAN_MOTION_DDOT": 0}, "tle": {"line1": "1 25504U 98060A   25344.22223308  .00000604  00000+0  11777-3 0  9994", "line2": "2 25504  24.9931 157.4199 0016597 286.7384 247.4751 14.45421199432951"}}, "geometry": {"type": "Point", "coordinates": [44.52721064645197, -23.721533314367598]}}, {"type": "Feature", "properties": {"norad_id": 25757, "name": "DLR-TUBSAT", "group": "resource", "lat": -78.82372594998343, "lon": 19.690886741964245, "alt_km": 723.2791501299698, "timestamp": "2025-12-10T18:56:59.718302+00:00", "meta": {"OBJECT_NAME": "DLR-TUBSAT", "OBJECT_ID": "1999-029B", "EPOCH": "2025-12-10T09:24:39.471264", "MEAN_MOTION": 14.52356238, "ECCENTRICITY": 0.0013759, "INCLINATION": 98.6562, "RA_OF_ASC_NODE": 328.8334, "ARG_OF_PERICENTER": 200.082, "MEAN_ANOMALY": 159.9835, "EPHEMERIS_TYPE": 0, "CLASSIFICATION_TYPE": "U", "NORAD_CAT_ID": 25757, "ELEMENT_SET_NO": 999, "REV_AT_EPOCH": 40584, "BSTAR": 7.36e-05, "MEAN_MOTION_DOT": 2.51e-06, "MEAN_MOTION_DDOT": 0}, "tle": {"line1": "1 25757U 99029B   25344.39212351  .00000251  00000+0  73600-4 0  9996", "line2": "2 25757  98.6562 328.8334 0013759 200.0820 159.9835 14.52356238405842"}}, "geometry": {"type": "Point", "coordinates": [19.690886741964245, -78.82372594998343]}}, {"type": "Feature", "properties": {"norad_id": 25994, "name": "TERRA", "group": "resource", "lat": -76.96513611172179, "lon": 73.81466450153434, "alt_km": 700.1458044920046, "timestamp": "2025-12-10T18:56:59.718314+00:00", "meta": {"OBJECT_NAME": "TERRA", "OBJECT_ID": "1999-068A", "EPOCH": "2025-12-10T09:30:00.919008", "MEAN_MOTION": 14.60897678, "ECCENTRICITY": 0.0003593, "INCLINATION": 97.9752, "RA_OF_ASC_NODE": 36.1664, "ARG_OF_PERICENTER": 99.131, "MEAN_ANOMALY": 271.7216, "EPHEMERIS_TYPE": 0, "CLASSIFICATION_TYPE": "U", "NORAD_CAT_ID": 25994, "ELEMENT_SET_NO": 999, "REV_AT_EPOCH": 38204, "BSTAR": 0.00015965, "MEAN_MOTION_DOT": 7.37e-06, "MEAN_MOTION_DDOT": 0}, "tle": {"line1": "1 25994U 99068A   25344.39584397  .00000737  00000+0  15965-3 0  9992", "line2": "2 25994  97.9752  36.1664 0003593  99.1310 271.7216 14.60897678382048"}}, "geometry": {"type": "Point", "coordinates": [73.81466450153434, -76.96513611172179]}}, {"type": "Feature", "properties": {"norad_id": 27004, "name": "MAROC-TUBSAT", "group": "resource", "lat": -4.238861754338636, "lon": -27.53309148755195, "alt_km": 999.8248612127309, "timestamp": "2025-12-10T18:56:59.718326+00:00", "meta": {"OBJECT_NAME": "MAROC-TUBSAT", "OBJECT_ID": "2001-056D", "EPOCH": "2025-12-10T11:07:51.424032", "MEAN_MOTION": 13.70252712, "ECCENTRICITY": 0.0019092, "INCLINATION": 99.7912, "RA_OF_ASC_NODE": 152.8689, "ARG_OF_PERICENTER": 266.2021, "MEAN_ANOMALY": 111.9402, "EPHEMERIS_TYPE": 0, "CLASSIFICATION_TYPE": "U", "NORAD_CAT_ID": 27004, "ELEMENT_SET_NO": 999, "REV_AT_EPOCH": 20034, "BSTAR": 4.2569e-05, "MEAN_MOTION_DOT": -9e-08, "MEAN_MOTION_DDOT": 0}, "tle": {"line1": "1 27004U 01056D   25344.46378963 -.00000009  00000+0  42569-4 0  9998", "line2": "2 27004  99.7912 152.8689 0019092 266.2021 111.9402 13.70252712200348"}}, "geometry": {"type": "Point", "coordinates": [-27.53309148755195, -4.238861754338636]}}, {"type": "Feature", "properties": {"norad_id": 27424, "name": "AQUA", "group": "resource", "lat": 30.51588733136685, "lon": 130.6355953548406, "alt_km": 685.1653818725836, "timestamp": "2025-12-10T18:56:59.718337+00:00", "meta": {"OBJECT_NAME": "AQUA", "OBJECT_ID": "2002-022A", "EPOCH": "2025-12-10T12:12:11.572992", "MEAN_MOTION": 14.61800641, "ECCENTRICITY": 0.0001003, "INCLINATION": 98.4035, "RA_OF_ASC_NODE": 305.3513, "ARG_OF_PERICENTER": 114.4534, "MEAN_ANOMALY": 356.0813, "EPHEMERIS_TYPE": 0, "CLASSIFICATION_TYPE": "U", "NORAD_CAT_ID": 27424, "ELEMENT_SET_NO": 999, "REV_AT_EPOCH": 25570, "BSTAR": 0.00036243, "MEAN_MOTION_DOT": 1.76e-05, "MEAN_MOTION_DDOT": 0}, "tle": {"line1": "1 27424U 02022A   25344.50846728  .00001760  00000+0  36243-3 0  9997", "line2": "2 27424  98.4035 305.3513 0001003 114.4534 356.0813 14.61800641255702"}}, "geometry": {"type": "Point", "coordinates": [130.6355953548406, 30.51588733136685]}}, {"type": "Feature", "properties": {"norad_id": 28051, "name": "IRS-P6 (RESOURCESAT-1)", "group": "resource", "lat": -13.963019778376701, "lon": -156.7725638919538, "alt_km": 730.7190814574851, "timestamp": "2025-12-10T18:56:59.718349+00:00", "meta": {"OBJECT_NAME": "IRS-P6 (RESOURCESAT-1)", "OBJECT_ID": "2003-046A", "EPOCH": "2025-12-10T13:45:29.626848", "MEAN_MOTION": 14.36073511, "ECCENTRICITY": 0.0063964, "INCLINATION": 98.2176, "RA_OF_ASC_NODE": 25.0803, "ARG_OF_PERICENTER": 187.1911, "MEAN_ANOMALY": 329.0079, "EPHEMERIS_TYPE": 0, "CLASSIFICATION_TYPE": "U", "NORAD_CAT_ID": 28051, "ELEMENT_SET_NO": 999, "REV_AT_EPOCH": 15345, "BSTAR": 0.00012381, "MEAN_MOTION_DOT": 3.28e-06, "MEAN_MOTION_DDOT": 0}, "tle": {"line1": "1 28051U 03046A   25344.57325957  .00000328  00000+0  12381-3 0  9990", "line2": "2 28051  98.2176  25.0803 0063964 187.1911 329.0079 14.36073511153454"}}, "geometry": {"type": "Point", "coordinates": [-156.7725638919538, -13.963019778376701]}}, {"type": "Feature", "properties": {"norad_id": 28220, "name": "SHIYAN-1 (SY-1)", "group": "resource", "lat": 37.16261446478335, "lon": -127.7508537970506, "alt_km": 482.91758905548704, "timestamp": "2025-12-10T18:56:59.718360+00:00", "meta": {"OBJECT_NAME": "SHIYAN-1 (SY-1)", "OBJECT_ID": "2004-012A", "EPOCH": "2025-12-10T04:11:03.635232", "MEAN_MOTION": 15.28033489, "ECCENTRICITY": 0.00057877, "INCLINATION": 97.8933, "RA_OF_ASC_NODE": 45.561, "ARG_OF_PERICENTER": 335.8258, "MEAN_ANOMALY": 24.2708, "EPHEMERIS_TYPE": 0, "CLASSIFICATION_TYPE": "U", "NORAD_CAT_ID": 28220, "ELEMENT_SET_NO": 999, "REV_AT_EPOCH": 18217, "BSTAR": 0.00067493114, "MEAN_MOTION_DOT": 0.00018409, "MEAN_MOTION_DDOT": 0}, "tle": {"line1": "1 28220U 04012A   25344.17434763  .00018409  00000+0  67493-3 0  9997", "line2": "2 28220  97.8933  45.5610 0005787 335.8258  24.2708 15.28033489182172"}}, "geometry": {"type": "Point", "coordinates": [-127.7508537970506, 37.16261446478335]}}, {"type": "Feature", "properties": {"norad_id": 28376, "name": "AURA", "group": "resource", "lat": -71.72760341300706, "lon": -38.69089649856923, "alt_km": 698.2511228011417, "timestamp": "2025-12-10T18:56:59.718370+00:00", "meta": {"OBJECT_NAME": "AURA", "OBJECT_ID": "2004-026A", "EPOCH": "2025-12-10T11:04:04.764000", "MEAN_MOTION": 14.60938361, "ECCENTRICITY": 0.0001198, "INCLINATION": 98.3182, "RA_OF_ASC_NODE": 294.6772, "ARG_OF_PERICENTER": 93.9724, "MEAN_ANOMALY": 266.1613, "EPHEMERIS_TYPE": 0, "CLASSIFICATION_TYPE": "U", "NORAD_CAT_ID": 28376, "ELEMENT_SET_NO": 999, "REV_AT_EPOCH": 13865, "BSTAR": 0.0003739, "MEAN_MOTION_DOT": 1.784e-05, "MEAN_MOTION_DDOT": 0}, "tle": {"line1": "1 28376U 04026A   25344.46116625  .00001784  00000+0  37390-3 0  9991", "line2": "2 28376  98.3182 294.6772 0001198  93.9724 266.1613 14.60938361138658"}}, "geometry": {"type": "Point", "coordinates": [-38.69089649856923, -71.72760341300706]}}]}